STARLINK-31798          
1 59635U 24082E   26068.26914961 -.00002532  00000+0 -82554-4 0  9995
2 59635  43.0027 142.5253 0001021 256.0206 104.0533 15.27569587104740
FLOCK 4G-24             
1 62637U 25009AE  26068.72509072  .00010513  00000+0  38996-3 0  9991
2 62637  97.4061 151.5140 0001802 280.2808  79.8228 15.27784978 63732
